HST                     
1 20580U 90037B   26068.15977042  .00009063  00000+0  30023-3 0  9999
2 20580  28.4717  43.6133 0001837 120.9992 239.0785 15.29473555773239
STARLINK-35421          
1 66062U 25235E   26068.71762653  .00038951  00000+0  13206-2 0  9995
2 66062  53.1566 245.2899 0000651  92.7123 267.3952 15.30194608 22929
